CCSDS_OMM_VERS = 2.0
CREATION_DATE  = 
ORIGINATOR     = 

OBJECT_NAME    = STARLINK-36610
OBJECT_ID      = 2026-020W
CENTER_NAME    = EARTH
REF_FRAME      = TEME
TIME_SYSTEM    = UTC
MEAN_ELEMENT_THEORY = SGP/SGP4

EPOCH          = 2026-02-10T12:00:01.999296
MEAN_MOTION    = 15.81103212
ECCENTRICITY   = .0001864
INCLINATION    = 42.9995
RA_OF_ASC_NODE = 307.3043
ARG_OF_PERICENTER = 275.2287
MEAN_ANOMALY   = 173.2543

EPHEMERIS_TYPE = 0
CLASSIFICATION_TYPE = U
NORAD_CAT_ID   = 67637
ELEMENT_SET_NO = 999
REV_AT_EPOCH   = 302
BSTAR          = -.1094E-1
MEAN_MOTION_DOT = -.1923651E-1
MEAN_MOTION_DDOT = 0

CCSDS_OMM_VERS = 2.0
CREATION_DATE  = 
ORIGINATOR     = 

OBJECT_NAME    = STARLINK-36599
OBJECT_ID      = 2026-020X
CENTER_NAME    = EARTH
REF_FRAME      = TEME
TIME_SYSTEM    = UTC
MEAN_ELEMENT_THEORY = SGP/SGP4

EPOCH          = 2026-02-10T12:00:01.999296
MEAN_MOTION    = 15.82004499
ECCENTRICITY   = .0001954
INCLINATION    = 42.9994
RA_OF_ASC_NODE = 307.2912
ARG_OF_PERICENTER = 263.2951
MEAN_ANOMALY   = 190.3097

EPHEMERIS_TYPE = 0
CLASSIFICATION_TYPE = U
NORAD_CAT_ID   = 67638
ELEMENT_SET_NO = 999
REV_AT_EPOCH   = 302
BSTAR          = -.21652E-3
MEAN_MOTION_DOT = -.45863E-3
MEAN_MOTION_DDOT = 0

CCSDS_OMM_VERS = 2.0
CREATION_DATE  = 
ORIGINATOR     = 

OBJECT_NAME    = STARLINK-36595
OBJECT_ID      = 2026-020Y
CENTER_NAME    = EARTH
REF_FRAME      = TEME
TIME_SYSTEM    = UTC
MEAN_ELEMENT_THEORY = SGP/SGP4

EPOCH          = 2026-02-10T12:00:01.999296
MEAN_MOTION    = 15.81974890
ECCENTRICITY   = .0002012
INCLINATION    = 42.9995
RA_OF_ASC_NODE = 307.2799
ARG_OF_PERICENTER = 267.3173
MEAN_ANOMALY   = 190.7929

EPHEMERIS_TYPE = 0
CLASSIFICATION_TYPE = U
NORAD_CAT_ID   = 67639
ELEMENT_SET_NO = 999
REV_AT_EPOCH   = 302
BSTAR          = -.47073E-4
MEAN_MOTION_DOT = -.10415E-3
MEAN_MOTION_DDOT = 0

CCSDS_OMM_VERS = 2.0
CREATION_DATE  = 
ORIGINATOR     = 

OBJECT_NAME    = STARLINK-36570
OBJECT_ID      = 2026-020Z
CENTER_NAME    = EARTH
REF_FRAME      = TEME
TIME_SYSTEM    = UTC
MEAN_ELEMENT_THEORY = SGP/SGP4

EPOCH          = 2026-02-10T12:00:01.999296
MEAN_MOTION    = 15.81997865
ECCENTRICITY   = .0001927
INCLINATION    = 42.9995
RA_OF_ASC_NODE = 307.2712
ARG_OF_PERICENTER = 269.0353
MEAN_ANOMALY   = 192.3963

EPHEMERIS_TYPE = 0
CLASSIFICATION_TYPE = U
NORAD_CAT_ID   = 67640
ELEMENT_SET_NO = 999
REV_AT_EPOCH   = 302
BSTAR          = -.22324E-3
MEAN_MOTION_DOT = -.47246E-3
MEAN_MOTION_DDOT = 0

CCSDS_OMM_VERS = 2.0
CREATION_DATE  = 
ORIGINATOR     = 

OBJECT_NAME    = STARLINK-36514
OBJECT_ID      = 2026-020AA
CENTER_NAME    = EARTH
REF_FRAME      = TEME
TIME_SYSTEM    = UTC
MEAN_ELEMENT_THEORY = SGP/SGP4

EPOCH          = 2026-02-10T12:00:01.999296
MEAN_MOTION    = 15.81998130
ECCENTRICITY   = .0002256
INCLINATION    = 42.9993
RA_OF_ASC_NODE = 307.2467
ARG_OF_PERICENTER = 270.5763
MEAN_ANOMALY   = 200.5785

EPHEMERIS_TYPE = 0
CLASSIFICATION_TYPE = U
NORAD_CAT_ID   = 67641
ELEMENT_SET_NO = 999
REV_AT_EPOCH   = 302
BSTAR          = -.63915E-4
MEAN_MOTION_DOT = -.13961E-3
MEAN_MOTION_DDOT = 0

CCSDS_OMM_VERS = 2.0
CREATION_DATE  = 
ORIGINATOR     = 

OBJECT_NAME    = STARLINK-36556
OBJECT_ID      = 2026-020AB
CENTER_NAME    = EARTH
REF_FRAME      = TEME
TIME_SYSTEM    = UTC
MEAN_ELEMENT_THEORY = SGP/SGP4

EPOCH          = 2026-02-10T12:00:01.999296
MEAN_MOTION    = 15.82034930
ECCENTRICITY   = .0001826
INCLINATION    = 42.9994
RA_OF_ASC_NODE = 307.2370
ARG_OF_PERICENTER = 256.5268
MEAN_ANOMALY   = 218.2435

EPHEMERIS_TYPE = 0
CLASSIFICATION_TYPE = U
NORAD_CAT_ID   = 67642
ELEMENT_SET_NO = 999
REV_AT_EPOCH   = 302
BSTAR          = -.37769E-3
MEAN_MOTION_DOT = -.7941E-3
MEAN_MOTION_DDOT = 0

CCSDS_OMM_VERS = 2.0
CREATION_DATE  = 
ORIGINATOR     = 

OBJECT_NAME    = STARLINK-36533
OBJECT_ID      = 2026-020AC
CENTER_NAME    = EARTH
REF_FRAME      = TEME
TIME_SYSTEM    = UTC
MEAN_ELEMENT_THEORY = SGP/SGP4

EPOCH          = 2026-02-10T12:00:01.999296
MEAN_MOTION    = 15.82388591
ECCENTRICITY   = .0002164
INCLINATION    = 42.9993
RA_OF_ASC_NODE = 307.2593
ARG_OF_PERICENTER = 259.8611
MEAN_ANOMALY   = 206.1804

EPHEMERIS_TYPE = 0
CLASSIFICATION_TYPE = U
NORAD_CAT_ID   = 67643
ELEMENT_SET_NO = 999
REV_AT_EPOCH   = 302
BSTAR          = -.81141E-2
MEAN_MOTION_DOT = -.1530923E-1
MEAN_MOTION_DDOT = 0

CCSDS_OMM_VERS = 2.0
CREATION_DATE  = 
ORIGINATOR     = 

OBJECT_NAME    = STARLINK-36623
OBJECT_ID      = 2026-020AD
CENTER_NAME    = EARTH
REF_FRAME      = TEME
TIME_SYSTEM    = UTC
MEAN_ELEMENT_THEORY = SGP/SGP4

EPOCH          = 2026-02-10T12:00:01.999296
MEAN_MOTION    = 15.81981470
ECCENTRICITY   = .0001811
INCLINATION    = 42.9991
RA_OF_ASC_NODE = 307.2124
ARG_OF_PERICENTER = 254.1465
MEAN_ANOMALY   = 230.3697

EPHEMERIS_TYPE = 0
CLASSIFICATION_TYPE = U
NORAD_CAT_ID   = 67644
ELEMENT_SET_NO = 999
REV_AT_EPOCH   = 302
BSTAR          = .20504E-3
MEAN_MOTION_DOT = .42785E-3
MEAN_MOTION_DDOT = 0

CCSDS_OMM_VERS = 2.0
CREATION_DATE  = 
ORIGINATOR     = 

OBJECT_NAME    = STARLINK-36619
OBJECT_ID      = 2026-020AE
CENTER_NAME    = EARTH
REF_FRAME      = TEME
TIME_SYSTEM    = UTC
MEAN_ELEMENT_THEORY = SGP/SGP4

EPOCH          = 2026-02-10T12:00:01.999296
MEAN_MOTION    = 15.82048456
ECCENTRICITY   = .000184
INCLINATION    = 42.9992
RA_OF_ASC_NODE = 307.2242
ARG_OF_PERICENTER = 256.5769
MEAN_ANOMALY   = 223.4351

EPHEMERIS_TYPE = 0
CLASSIFICATION_TYPE = U
NORAD_CAT_ID   = 67645
ELEMENT_SET_NO = 999
REV_AT_EPOCH   = 302
BSTAR          = -.39106E-3
MEAN_MOTION_DOT = -.82229E-3
MEAN_MOTION_DDOT = 0

CCSDS_OMM_VERS = 2.0
CREATION_DATE  = 
ORIGINATOR     = 

OBJECT_NAME    = ALSAT-3B
OBJECT_ID      = 2026-021A
CENTER_NAME    = EARTH
REF_FRAME      = TEME
TIME_SYSTEM    = UTC
MEAN_ELEMENT_THEORY = SGP/SGP4

EPOCH          = 2026-02-10T10:59:19.743360
MEAN_MOTION    = 15.23531443
ECCENTRICITY   = .0011679
INCLINATION    = 97.4721
RA_OF_ASC_NODE = 115.9112
ARG_OF_PERICENTER = 226.4847
MEAN_ANOMALY   = 133.5420

EPHEMERIS_TYPE = 0
CLASSIFICATION_TYPE = U
NORAD_CAT_ID   = 67646
ELEMENT_SET_NO = 999
REV_AT_EPOCH   = 157
BSTAR          = .28364E-3
MEAN_MOTION_DOT = .6716E-4
MEAN_MOTION_DDOT = 0

CCSDS_OMM_VERS = 2.0
CREATION_DATE  = 
ORIGINATOR     = 

OBJECT_NAME    = CZ-2C R/B
OBJECT_ID      = 2026-021B
CENTER_NAME    = EARTH
REF_FRAME      = TEME
TIME_SYSTEM    = UTC
MEAN_ELEMENT_THEORY = SGP/SGP4

EPOCH          = 2026-02-10T09:28:19.563168
MEAN_MOTION    = 15.23333089
ECCENTRICITY   = .0153963
INCLINATION    = 97.6562
RA_OF_ASC_NODE = 116.3131
ARG_OF_PERICENTER = 106.0228
MEAN_ANOMALY   = 255.8027

EPHEMERIS_TYPE = 0
CLASSIFICATION_TYPE = U
NORAD_CAT_ID   = 67647
ELEMENT_SET_NO = 999
REV_AT_EPOCH   = 154
BSTAR          = .40241E-3
MEAN_MOTION_DOT = .13282E-3
MEAN_MOTION_DDOT = 0

CCSDS_OMM_VERS = 2.0
CREATION_DATE  = 
ORIGINATOR     = 

OBJECT_NAME    = STARLINK-36719
OBJECT_ID      = 2026-022A
CENTER_NAME    = EARTH
REF_FRAME      = TEME
TIME_SYSTEM    = UTC
MEAN_ELEMENT_THEORY = SGP/SGP4

EPOCH          = 2026-02-10T12:00:01.999296
MEAN_MOTION    = 15.92531586
ECCENTRICITY   = .0001124
INCLINATION    = 97.2836
RA_OF_ASC_NODE = 74.0563
ARG_OF_PERICENTER = 91.0178
MEAN_ANOMALY   = 262.2964

EPHEMERIS_TYPE = 0
CLASSIFICATION_TYPE = U
NORAD_CAT_ID   = 67648
ELEMENT_SET_NO = 999
REV_AT_EPOCH   = 252
BSTAR          = -.50028E-2
MEAN_MOTION_DOT = -.1679577E-1
MEAN_MOTION_DDOT = .79096E-3

