STARLINK-36610          
1 67637U 26020W   26041.50002314 -.01923651  00000+0 -10940-1 0  9990
2 67637  42.9995 307.3043 0001864 275.2287 173.2543 15.81103212  3025
STARLINK-36599          
1 67638U 26020X   26041.50002314 -.00045863  00000+0 -21652-3 0  9994
2 67638  42.9994 307.2912 0001954 263.2951 190.3097 15.82004499  3026
STARLINK-36595          
1 67639U 26020Y   26041.50002314 -.00010415  00000+0 -47073-4 0  9996
2 67639  42.9995 307.2799 0002012 267.3173 190.7929 15.81974890  3026
STARLINK-36570          
1 67640U 26020Z   26041.50002314 -.00047246  00000+0 -22324-3 0  9991
2 67640  42.9995 307.2712 0001927 269.0353 192.3963 15.81997865  3029
STARLINK-36514          
1 67641U 26020AA  26041.50002314 -.00013961  00000+0 -63915-4 0  9991
2 67641  42.9993 307.2467 0002256 270.5763 200.5785 15.81998130  3023
STARLINK-36556          
1 67642U 26020AB  26041.50002314 -.00079410  00000+0 -37769-3 0  9990
2 67642  42.9994 307.2370 0001826 256.5268 218.2435 15.82034930  3022
STARLINK-36533          
1 67643U 26020AC  26041.50002314 -.01530923  00000+0 -81141-2 0  9995
2 67643  42.9993 307.2593 0002164 259.8611 206.1804 15.82388591  3024
STARLINK-36623          
1 67644U 26020AD  26041.50002314  .00042785  00000+0  20504-3 0  9994
2 67644  42.9991 307.2124 0001811 254.1465 230.3697 15.81981470  3029
STARLINK-36619          
1 67645U 26020AE  26041.50002314 -.00082229  00000+0 -39106-3 0  9992
2 67645  42.9992 307.2242 0001840 256.5769 223.4351 15.82048456  3026
ALSAT-3B                
1 67646U 26021A   26041.45786740  .00006716  00000+0  28364-3 0  9999
2 67646  97.4721 115.9112 0011679 226.4847 133.5420 15.23531443  1570
CZ-2C R/B               
1 67647U 26021B   26041.39467087  .00013282  00000+0  40241-3 0  9997
2 67647  97.6562 116.3131 0153963 106.0228 255.8027 15.23333089  1545
STARLINK-36719          
1 67648U 26022A   26041.50002314 -.01679577  79096-3 -50028-2 0  9996
2 67648  97.2836  74.0563 0001124  91.0178 262.2964 15.92531586  2522
